KUZGTU-1 (RS47S)
1 57217U 23091AV  25149.22578473  .00010310  00000-0  48169-3 0  9992
2 57217  97.5588 206.4976 0013487  11.9956 348.1598 15.19917445105879
STRATOSAT-TK1-A (RS45S)
1 57322U 23091AW  25149.22201976  .00169791  00000-0  17755-2 0  9994
2 57322  97.5468 217.0566 0002651 278.8737  81.2221 15.63900436104450
STRATOSAT-TK1-E (RS52SE)
1 57323U 23091AX  25149.16803191  .00026270  00000-0  82890-3 0  9992
2 57323  97.5558 210.5965 0009174   5.1037 355.0296 15.32800086104026
STRATOSAT-TK1-B (RS52SB)
1 57324U 23091AY  25149.20902576  .00162421  00000-0  17427-2 0  9997
2 57324  97.5478 216.9425 0002639 283.4053  76.6911 15.63264845104444
STRATOSAT-TK1-D (RS52SD)
1 57326U 23091BA  25149.20196475  .00025287  00000-0  81749-3 0  9999
2 57326  97.5550 210.3626 0009400   5.0558 355.0776 15.32026737103858
STRATOSAT-TK1-V (RS52SV)
1 57327U 23091BB  25149.17016297  .00170141  00000-0  17893-2 0  9997
2 57327  97.5484 217.0254 0002799 283.8839  76.2108 15.63753650104282
VERONIKA
1 58261U 23174F   25149.16799327  .00145830  00000-0  13447-2 0  9996
2 58261  97.4130 234.6835 0004090 125.1529 235.0116 15.67144159 86899
ENSO
1 58470U 23185J   25149.18471417  .00059512  00000-0  89713-3 0  9990
2 58470  97.3741 223.9480 0008638 127.3549 232.8493 15.54553309 83261
METEOR M2-4
1 59051U 24039A   25149.17795124  .00000017  00000-0  27150-4 0  9992
2 59051  98.6489 109.5276 0006665 192.5428 167.5586 14.22366123 64671
ZORKIY-2M 2
1 59064U 24039P   25149.19354001  .00047149  00000-0  68866-3 0  9998
2 59064  97.4275 121.3679 0012374  61.9215 298.3288 15.55426109 69845
PARS-1
1 59065U 24039Q   25149.17603341  .00009426  00000-0  26772-3 0  9997
2 59065  97.4393 117.0729 0013424  63.8688 296.3935 15.36319044 69516
SITRO-AIS-25
1 59066U 24039R   25149.16788595  .00004239  00000-0  36304-3 0  9991
2 59066  95.3747 332.2494 0154607 226.1288 132.7079 14.88999547 67491
SITRO-AIS-26
1 59067U 24039S   25149.19265431  .00004969  00000-0  42647-3 0  9991
2 59067  95.3750 332.2274 0154767 226.2533 132.5794 14.88853014 67493
SITRO-AIS-27
1 59068U 24039T   25149.19013614  .00005043  00000-0  42994-3 0  9995
2 59068  95.3750 332.3458 0154044 225.6217 133.2307 14.89175469 67501
SITRO-AIS-28
1 59071U 24039U   25149.17751642  .00004764  00000-0  40596-3 0  9992
2 59071  95.3750 332.3629 0153937 225.5885 133.2654 14.89215964 67505
SONATE-2
1 59112U 24043Q   25148.30891258  .00017447  00000-0  50906-3 0  9993
2 59112  97.5124 279.2451 0012139 153.8301 206.3557 15.35335779 68454
HORS-1
1 57188U 23091Y   25149.18327790  .00008482  00000-0  41074-3 0  9993
2 57188  97.5592 206.7268 0010370   5.6687 354.4662 15.18763746105882
HORS-2
1 57196U 23091AG  25149.17575107  .00010269  00000-0  46191-3 0  9999
2 57196  97.5607 207.9311 0009844   4.1062 356.0252 15.21261725105950
ZORKIY-2M 6
1 59774U 24092B   25149.14487613  .00009271  00000-0  43591-3 0  9998
2 59774  97.6134 266.5660 0012102  86.8408 273.4211 15.19744139 57045
ZORKIY-2M 4
1 59775U 24092C   25149.20124786  .00009466  00000-0  43927-3 0  9994
2 59775  97.6266 267.4386 0012181  89.7823 270.4807 15.20192549 57072
SITRO-AIS-53
1 59776U 24092D   25149.05276028  .00011721  00000-0  51300-3 0  9996
2 59776  97.6215 267.0917 0010836  68.2846 291.9542 15.22154238 57052
SITRO-AIS-54
1 59777U 24092E   25149.05149076  .00011717  00000-0  51329-3 0  9995
2 59777  97.6212 267.0876 0011090  68.5001 291.7416 15.22121798 57056
SITRO-AIS-56
1 59778U 24092F   25148.88853067  .00012549  00000-0  54468-3 0  9999
2 59778  97.6207 266.9752 0011194  69.4922 290.7514 15.22417894 57030
RASSVET 1-4
1 59779U 24092G   25149.13452095  .00000202  00000-0  92597-4 0  9994
2 59779  98.6352 264.4615 0011058 257.8617 102.1328 14.31608141 53948
RASSVET 1-5
1 59780U 24092H   25149.20388147  .00000197  00000-0  90524-4 0  9991
2 59780  98.6351 264.5279 0011281 258.3391 101.6526 14.31607247 53950
RASSVET 1-6
1 59781U 24092J   25149.20283835  .00000191  00000-0  88236-4 0  9991
2 59781  98.6351 264.5302 0011050 257.8621 102.1324 14.31607840 53953
SITRO-AIS-55
1 59809U 24092K   25149.14015865  .00013548  00000-0  59433-3 0  9997
2 59809  97.6206 267.0980 0011242  68.1590 292.0841 15.22034708 56564
MESAT-1
1 60209U 24125G   25148.84722693  .00017504  00000-0  50341-3 0  9995
2 60209  97.2798   0.6002 0019269 174.7544 185.3905 15.35667335 50154
ISTSAT-1
1 60238U 24128D   25149.07778420  .00007131  00000-0  49980-3 0  9997
2 60238  61.9899 117.3773 0050107  54.6503 305.9257 15.05068079 48529
IONOSFERA-M 01
1 61735U 24199A   25149.20261800  .00000046  00000-0  40233-4 0  9993
2 61735  98.7709  20.2772 0001635 124.6990 235.4342 14.22667679 73104
IONOSFERA-M 02
1 61736U 24199B   25149.16715973  .00000062  00000-0  47724-4 0  9994
2 61736  98.7707  20.1570 0001430  47.9873 312.1426 14.22668930 76221
SITRO-AIS-16
1 61737U 24199C   25149.15199860  .00003359  00000-0  31304-3 0  9993
2 61737  97.3597   7.3591 0005187 286.6538  73.4114 14.94864980 74396
SITRO-AIS-15
1 61738U 24199D   25149.14373688  .00003070  00000-0  28620-3 0  9992
2 61738  97.3594   7.3699 0005072 286.8329  73.2336 14.94906743 74394
SITRO-AIS-21
1 61739U 24199E   25149.15831605  .00002983  00000-0  28976-3 0  9998
2 61739  97.3598   6.9089 0011310 275.6710  84.3221 14.93262215 74405
SITRO-AIS-22
1 61740U 24199F   25149.15322970  .00003099  00000-0  30030-3 0  9993
2 61740  97.3600   6.9218 0011401 276.8148  83.1775 14.93333227 74553
SITRO-AIS-24
1 61741U 24199G   25149.15558891  .00003156  00000-0  30624-3 0  9990
2 61741  97.3601   6.9219 0011366 278.6718  81.3215 14.93259148 74524
SITRO-AIS-23
1 61742U 24199H   25149.14765169  .00003110  00000-0  30117-3 0  9995
2 61742  97.3598   6.9295 0011275 277.9546  82.0395 14.93359505 74406
SITRO-AIS-13
1 61743U 24199J   25149.19061350  .00002471  00000-0  23022-3 0  9998
2 61743  97.3594   7.4576 0005107 289.0599  71.0069 14.95095306 74561
CSTP-2.11
1 61744U 24199K   25149.18266276  .00015780  00000-0  49446-3 0  9997
2 61744  97.3578  18.0566 0011120 215.1408 144.9102 15.33104846 75216
POLYTECH UNIVERSE-5 (RS70S)
1 61745U 24199L   25149.15654351  .00018713  00000-0  55868-3 0  9994
2 61745  97.3552  18.1670 0008567 221.2021 138.8576 15.34630506 78360
COLIBRI-S (RS67S)
1 61746U 24199M   25149.17753987  .00013661  00000-0  43964-3 0  9993
2 61746  97.3578  17.9078 0011088 216.5732 143.4754 15.32283655 78341
POLYTECH UNIVERSE-4 (RS71S)
1 61747U 24199N   25149.14178250  .00012636  00000-0  41377-3 0  9992
2 61747  97.3578  17.8018 0011270 215.2938 144.7558 15.31743904 78334
SITRO-AIS-44
1 61748U 24199P   25149.16460323  .00020448  00000-0  59399-3 0  9993
2 61748  97.3544  18.2998 0008234 219.9671 140.0968 15.35477420 78370
VIZARD-ION (RS68S)
1 61749U 24199Q   25149.20517596  .00016513  00000-0  50681-3 0  9997
2 61749  97.3579  18.1783 0010656 213.1275 146.9301 15.33760482 78363
MTUSI-1
1 61750U 24199R   25149.14729072  .00019201  00000-0  59332-3 0  9995
2 61750  97.3551  17.8782 0010360 226.3139 133.7246 15.33515702 78340
VLADIVOSTOK-1
1 61751U 24199S   25149.20218667  .00007281  00000-0  26180-3 0  9996
2 61751  97.3562  17.3653 0010032 234.0401 125.9909 15.28878044 78321
SITRO-AIS-14
1 61752U 24199T   25149.20408373  .00002784  00000-0  25969-3 0  9999
2 61752  97.3593   7.4408 0005062 287.3786  72.6882 14.94952525 77706
HORS-3 (RS81S)
1 61753U 24199U   25149.17913936  .00017626  00000-0  54458-3 0  9998
2 61753  97.3546  17.9797 0009260 222.4702 137.5825 15.33549912 78350
HORS-4 (RS82S)
1 61754U 24199V   25149.18754288  .00018371  00000-0  55441-3 0  9994
2 61754  97.3543  18.1125 0009410 222.6453 137.4061 15.34286446 78361
SITRO-AIS-43
1 61755U 24199W   25149.15763722  .00020377  00000-0  59066-3 0  9991
2 61755  97.3544  18.3083 0008232 219.6390 140.4253 15.35546507 78371
SITRO-AIS-42
1 61756U 24199X   25149.15471903  .00020248  00000-0  58633-3 0  9995
2 61756  97.3546  18.3135 0008293 219.2528 140.8115 15.35578814 78375
HORIZON (RS59S)
1 61757U 24199Y   25149.19898046  .00025821  00000-0  70547-3 0  9991
2 61757  97.3566  18.6215 0010017 208.8636 151.2056 15.37330110 78390
SITRO-AIS-20
1 61758U 24199Z   25149.18091703  .00002167  00000-0  20214-3 0  9990
2 61758  97.3595   7.4639 0004859 292.9673  67.1035 14.95172453 77704
SITRO-AIS-19
1 61759U 24199AA  25149.17954124  .00002210  00000-0  20608-3 0  9991
2 61759  97.3596   7.4669 0004806 295.2711  64.8013 14.95154602 77706
SITRO-AIS-41
1 61760U 24199AB  25149.17458419  .00020568  00000-0  60120-3 0  9998
2 61760  97.3550  18.2938 0008349 219.2299 140.8341 15.35280364 78373
2024-199AC
1 61761U 24199AC  25149.17304958  .00017829  00000-0  54057-3 0  9995
2 61761  97.3544  18.1369 0008103 221.4990 138.5638 15.34155348 78369
ARCTICSAT-1 (RS74S)
1 61762U 24199AD  25149.18478427  .00024930  00000-0  68492-3 0  9999
2 61762  97.3564  18.6364 0010159 208.0741 151.9956 15.37162741 78394
SIT-HSE
1 61763U 24199AE  25149.16140271  .00012639  00000-0  37377-3 0  9992
2 61763  97.3550  18.3083 0007925 224.4131 135.6478 15.35023132 78371
SIT-2086
1 61764U 24199AF  25149.21213936  .00018098  00000-0  52364-3 0  9996
2 61764  97.3547  18.3924 0007891 216.7506 143.3198 15.35631774 75227
MORDOVIA-IOT (RS50S)
1 61765U 24199AG  25149.21568421  .00034707  00000-0  83968-3 0  9998
2 61765  97.3547  19.1882 0009412 202.0183 158.0661 15.41005449 75285
RUZAEVKA-390 (RS44S)
1 61766U 24199AH  25149.21972968  .00030780  00000-0  77667-3 0  9990
2 61766  97.3548  19.0273 0009461 202.5012 157.5820 15.39749578 75275
2024-199AJ (? AHMAT-2)
1 61767U 24199AJ  25149.17475065  .00044172  00000-0  10079-2 0  9995
2 61767  97.3537  19.3670 0009020 197.8439 162.2493 15.42720403 75299
HOD-HOD
1 61768U 24199AK  25149.19721608  .00014790  00000-0  46206-3 0  9990
2 61768  97.3555  18.1280 0006523 225.7720 134.2987 15.33254825 75212
KOSAR
1 61769U 24199AL  25149.20743675  .00015522  00000-0  47324-3 0  9997
2 61769  97.3550  18.2529 0006322 225.5819 134.4907 15.34022024 75229
